NORAD_CAT_ID,OBJECT_NAME,OBJECT_TYPE,EPOCH,MEAN_MOTION,ECCENTRICITY,INCLINATION,RA_OF_ASC_NODE,ARG_OF_PERICENTER,MEAN_ANOMALY,BSTAR,MEAN_MOTION_DOT,MEAN_MOTION_DDOT,TLE_LINE0,TLE_LINE1,TLE_LINE2,SEMIMAJOR_AXIS,PERIOD,APOGEE,PERIGEE,DECAYED
52574.0,STARLINK-3901,PAYLOAD,2024-05-17 11:42:32,15.08806414,0.0001483,53.2165,207.3749,100.6578,259.4581,-0.00056435,-9.25e-05,0.0,0 STARLINK-3901,1 52574U 22051AQ  24138.48787988 -.00009250  00000-0 -56435-3 0  9994,2 52574  53.2165 207.3749 0001483 100.6578 259.4581 15.08806414111837,6917.983,95.44,540.874,538.822,0.0
52574.0,STARLINK-3901,PAYLOAD,2024-05-17 21:14:52,15.08828435,0.0001563,53.2167,205.5887,91.9938,268.1233,0.00095115,0.00014877,0.0,0 STARLINK-3901,1 52574U 22051AQ  24138.88532596  .00014877  00000-0  95115-3 0  9998,2 52574  53.2167 205.5887 0001563  91.9938 268.1233 15.08828435111897,6917.916,95.438,540.862,538.699,0.0
52574.0,STARLINK-3901,PAYLOAD,2024-05-18 11:33:21,15.08837061,0.0001421,53.2158,202.909,65.1514,294.9626,0.001432,0.00022574,0.0,0 STARLINK-3901,1 52574U 22051AQ  24139.48149550  .00022574  00000-0  14320-2 0  9990,2 52574  53.2158 202.9090 0001421  65.1514 294.9626 15.08837061111988,6917.889,95.438,540.737,538.771,0.0
52574.0,STARLINK-3901,PAYLOAD,2024-05-18 21:05:39,15.08849026,0.0001496,53.2162,201.1298,89.3926,270.7238,0.0011116,0.00017452,0.0,0 STARLINK-3901,1 52574U 22051AQ  24139.87893391  .00017452  00000-0  11116-2 0  9991,2 52574  53.2162 201.1298 0001496  89.3926 270.7238 15.08849026111975,6917.853,95.437,540.753,538.683,0.0
52574.0,STARLINK-3901,PAYLOAD,2024-05-19 03:27:13,15.08840076,0.0002903,53.2161,199.9392,85.6532,274.4792,0.00079449,0.00012379,0.0,0 STARLINK-3901,1 52574U 22051AQ  24140.14390174  .00012379  00000-0  79449-3 0  9991,2 52574  53.2161 199.9392 0002903  85.6532 274.4792 15.08840076112084,6917.88,95.438,541.753,537.737,0.0
52574.0,STARLINK-3901,PAYLOAD,2024-05-19 12:59:32,15.08820177,0.0001525,53.2161,198.1533,92.3032,267.8134,0.0021189,0.00033577,0.0,0 STARLINK-3901,1 52574U 22051AQ  24140.54134988  .00033577  00000-0  21189-2 0  9994,2 52574  53.2161 198.1533 0001525  92.3032 267.8134 15.08820177112144,6917.941,95.439,540.861,538.751,0.0
52574.0,STARLINK-3901,PAYLOAD,2024-05-20 03:18:00,15.08875305,0.0001393,53.2152,195.4767,93.2827,266.8324,0.0025897,0.00041208,0.0,0 STARLINK-3901,1 52574U 22051AQ  24141.13750465  .00041208  00000-0  25897-2 0  9994,2 52574  53.2152 195.4767 0001393  93.2827 266.8324 15.08875305112231,6917.772,95.435,540.601,538.674,0.0
52574.0,STARLINK-3901,PAYLOAD,2024-05-20 11:14:55,15.0889264,0.0001356,53.2151,193.9896,91.5255,268.5892,0.0021199,0.0003366,0.0,0 STARLINK-3901,1 52574U 22051AQ  24141.46869509  .00033660  00000-0  21199-2 0  9994,2 52574  53.2151 193.9896 0001356  91.5255 268.5892 15.08892640112219,6917.719,95.434,540.523,538.646,0.0
52574.0,STARLINK-3901,PAYLOAD,2024-05-21 03:08:46,15.08873852,0.0001576,53.2157,191.0165,85.1627,274.9546,0.0015249,0.00024087,0.0,0 STARLINK-3901,1 52574U 22051AQ  24142.13109125  .00024087  00000-0  15249-2 0  9992,2 52574  53.2157 191.0165 0001576  85.1627 274.9546 15.08873852112388,6917.777,95.435,540.732,538.552,0.0
52574.0,STARLINK-3901,PAYLOAD,2024-05-21 09:30:18,15.08832447,9.08e-05,53.2145,189.8239,98.6451,261.4644,0.0008729,0.00013629,0.0,0 STARLINK-3901,1 52574U 22051AQ  24142.39605321  .00013629  00000-0  87290-3 0  9995,2 52574  53.2145 189.8239 0000908  98.6451 261.4644 15.08832447112424,6917.903,95.438,540.397,539.14,0.0
52574.0,STARLINK-3901,PAYLOAD,2024-05-22 09:21:06,15.08843799,0.0001373,53.215,185.3665,89.8147,270.3003,0.00099666,0.00015611,0.0,0 STARLINK-3901,1 52574U 22051AQ  24143.38966294  .00015611  00000-0  99666-3 0  9997,2 52574  53.2150 185.3665 0001373  89.8147 270.3003 15.08843799112571,6917.869,95.437,540.684,538.784,0.0
52574.0,STARLINK-3901,PAYLOAD,2024-05-23 06:01:07,15.08848468,0.0001326,53.214,181.4976,100.8529,259.2612,0.00047778,7.326e-05,0.0,0 STARLINK-3901,1 52574U 22051AQ  24144.25078028  .00007326  00000-0  47778-3 0  9994,2 52574  53.2140 181.4976 0001326 100.8529 259.2612 15.08848468112703,6917.855,95.437,540.637,538.802,0.0
52574.0,STARLINK-3901,PAYLOAD,2024-05-23 09:11:53,15.08844393,0.0001302,53.2144,180.9016,104.4058,255.7079,0.00032321,4.86e-05,0.0,0 STARLINK-3901,1 52574U 22051AQ  24144.38326085  .00004860  00000-0  32321-3 0  9995,2 52574  53.2144 180.9016 0001302 104.4058 255.7079 15.08844393112652,6917.867,95.437,540.633,538.831,0.0
52574.0,STARLINK-3901,PAYLOAD,2024-05-24 09:02:39,15.08851551,0.0001818,53.2142,176.4404,36.8832,323.2285,-1.9726e-05,-6.02e-06,0.0,0 STARLINK-3901,1 52574U 22051AQ  24145.37684290 -.00000602  00000-0 -19726-4 0  9997,2 52574  53.2142 176.4404 0001818  36.8832 323.2285 15.08851551112879,6917.845,95.437,540.968,538.452,0.0
52574.0,STARLINK-3901,PAYLOAD,2024-05-24 18:34:58,15.08841546,0.0001122,53.2141,174.6566,74.7813,285.3303,-0.0002292,-3.934e-05,0.0,0 STARLINK-3901,1 52574U 22051AQ  24145.77428804 -.00003934  00000-0 -22920-3 0  9998,2 52574  53.2141 174.6566 0001122  74.7813 285.3303 15.08841546112934,6917.876,95.437,540.517,538.964,0.0
52574.0,STARLINK-3901,PAYLOAD,2024-05-25 05:42:41,15.08828016,0.000128,53.2148,172.5774,109.1085,251.0045,-0.00030893,-5.199e-05,0.0,0 STARLINK-3901,1 52574U 22051AQ  24146.23797651 -.00005199  00000-0 -30893-3 0  9992,2 52574  53.2148 172.5774 0001280 109.1085 251.0045 15.08828016113007,6917.917,95.438,540.668,538.897,0.0
52574.0,STARLINK-3901,PAYLOAD,2024-05-25 12:04:14,15.08823489,0.0001142,53.2149,171.3903,88.2602,271.8521,-0.00032477,-5.45e-05,0.0,0 STARLINK-3901,1 52574U 22051AQ  24146.50294094 -.00005450  00000-0 -32477-3 0  9995,2 52574  53.2149 171.3903 0001142  88.2602 271.8521 15.08823489112971,6917.931,95.439,540.586,539.006,0.0
52574.0,STARLINK-3901,PAYLOAD,2024-05-26 10:19:39,15.08821137,0.0001267,53.2146,167.2274,114.3437,245.7688,-2.4529e-05,-6.78e-06,0.0,0 STARLINK-3901,1 52574U 22051AQ  24147.43031251 -.00000678  00000-0 -24529-4 0  9999,2 52574  53.2146 167.2274 0001267 114.3437 245.7688 15.08821137113184,6917.938,95.439,540.68,538.927,0.0
52574.0,STARLINK-3901,PAYLOAD,2024-05-26 18:16:35,15.08817904,0.000119,53.2146,165.7506,119.5358,240.5753,0.00022766,3.335e-05,0.0,0 STARLINK-3901,1 52574U 22051AQ  24147.76152124  .00003335  00000-0  22766-3 0  9999,2 52574  53.2146 165.7506 0001190 119.5358 240.5753 15.08817904113160,6917.948,95.439,540.636,538.99,0.0
52574.0,STARLINK-3901,PAYLOAD,2024-05-27 08:35:04,15.08824737,0.000106,53.2148,163.0642,87.4515,272.6598,0.0002595,3.843e-05,0.0,0 STARLINK-3901,1 52574U 22051AQ  24148.35768640  .00003843  00000-0  25950-3 0  9993,2 52574  53.2148 163.0642 0001060  87.4515 272.6598 15.08824737113253,6917.927,95.439,540.525,539.059,0.0
52574.0,STARLINK-3901,PAYLOAD,2024-05-27 18:07:23,15.08827163,0.0001097,53.2149,161.2803,83.0162,277.0955,0.00022888,3.355e-05,0.0,0 STARLINK-3901,1 52574U 22051AQ  24148.75512976  .00003355  00000-0  22888-3 0  9991,2 52574  53.2149 161.2803 0001097  83.0162 277.0955 15.08827163113389,6917.92,95.438,540.544,539.026,0.0
52574.0,STARLINK-3901,PAYLOAD,2024-05-28 08:25:51,15.08841659,0.0001013,53.2144,158.6031,89.1301,270.9807,0.00037862,5.743e-05,0.0,0 STARLINK-3901,1 52574U 22051AQ  24149.35128705  .00005743  00000-0  37862-3 0  9992,2 52574  53.2144 158.6031 0001013  89.1301 270.9807 15.08841659113471,6917.875,95.437,540.441,539.04,0.0
52574.0,STARLINK-3901,PAYLOAD,2024-05-29 09:52:00,15.08852468,0.0001015,53.2146,153.845,90.1154,269.9955,0.00034699,5.241e-05,0.0,0 STARLINK-3901,1 52574U 22051AQ  24150.41112128  .00005241  00000-0  34699-3 0  9991,2 52574  53.2146 153.8450 0001015  90.1154 269.9955 15.08852468113635,6917.842,95.437,540.409,539.005,0.0
52574.0,STARLINK-3901,PAYLOAD,2024-05-30 09:42:46,15.08866356,0.0001072,53.2149,149.385,82.9609,277.1505,0.00039894,6.071e-05,0.0,0 STARLINK-3901,1 52574U 22051AQ  24151.40470778  .00006071  00000-0  39894-3 0  9993,2 52574  53.2149 149.3850 0001072  82.9609 277.1505 15.08866356113711,6917.8,95.436,540.406,538.923,0.0
52574.0,STARLINK-3901,PAYLOAD,2024-05-31 04:47:24,15.08853027,0.000114,53.2154,145.8144,86.6446,273.4677,6.8536e-05,8.03e-06,0.0,0 STARLINK-3901,1 52574U 22051AQ  24152.19958503  .00000803  00000-0  68536-4 0  9990,2 52574  53.2154 145.8144 0001140  86.6446 273.4677 15.08853027113901,6917.841,95.437,540.494,538.917,0.0
52574.0,STARLINK-3901,PAYLOAD,2024-06-01 04:38:11,15.08844143,0.0001135,53.2162,141.3538,86.033,274.0792,-6.229e-05,-1.279e-05,0.0,0 STARLINK-3901,1 52574U 22051AQ  24153.19318895 -.00001279  00000-0 -62290-4 0  9996,2 52574  53.2162 141.3538 0001135  86.0330 274.0792 15.08844143114059,6917.868,95.437,540.518,538.948,0.0
52574.0,STARLINK-3901,PAYLOAD,2024-06-01 06:13:34,15.08845503,0.0001108,53.2157,141.057,84.2152,275.8967,-5.1424e-05,-1.106e-05,0.0,0 STARLINK-3901,1 52574U 22051AQ  24153.25942734 -.00001106  00000-0 -51424-4 0  9994,2 52574  53.2157 141.0570 0001108  84.2152 275.8967 15.08845503113994,6917.864,95.437,540.495,538.962,0.0
52574.0,STARLINK-3901,PAYLOAD,2024-06-02 06:04:22,15.08805183,0.0001414,53.2175,136.6,97.568,262.5473,0.00038781,5.884e-05,0.0,0 STARLINK-3901,1 52574U 22051AQ  24154.25303933  .00005884  00000-0  38781-3 0  9992,2 52574  53.2175 136.6000 0001414  97.5680 262.5473 15.08805183114216,6917.987,95.44,540.83,538.874,0.0
52574.0,STARLINK-3901,PAYLOAD,2024-06-03 04:19:45,15.08851658,0.0001195,53.2175,132.4371,101.8103,258.3023,-0.00010722,-1.994e-05,0.0,0 STARLINK-3901,1 52574U 22051AQ  24155.18038939 -.00001994  00000-0 -10722-3 0  9991,2 52574  53.2175 132.4371 0001195 101.8103 258.3023 15.08851658114353,6917.845,95.437,540.536,538.883,0.0
52574.0,STARLINK-3901,PAYLOAD,2024-06-03 07:30:32,15.08839284,0.0001279,53.2171,131.8419,95.9491,264.1647,9.9403e-05,1.294e-05,0.0,0 STARLINK-3901,1 52574U 22051AQ  24155.31287181  .00001294  00000-0  99403-4 0  9996,2 52574  53.2171 131.8419 0001279  95.9491 264.1647 15.08839284114304,6917.883,95.438,540.632,538.863,0.0
